OBJECT_NAME,OBJECT_ID,EPOCH,MEAN_MOTION,ECCENTRICITY,INCLINATION,RA_OF_ASC_NODE,ARG_OF_PERICENTER,MEAN_ANOMALY,EPHEMERIS_TYPE,CLASSIFICATION_TYPE,NORAD_CAT_ID,ELEMENT_SET_NO,REV_AT_EPOCH,BSTAR,MEAN_MOTION_DOT,MEAN_MOTION_DDOT
SBIRS GEO-3 (USA 282),2018-009A,2026-06-14T17:28:56.372736,1.00271487,.0001795,2.1826,11.9867,64.9555,288.9171,0,U,43162,999,3081,0,.133E-5,0
AL YAH 3,2018-012A,2026-06-14T18:08:37.567104,1.00270049,.0003854,1.5456,83.1350,359.5781,72.3858,0,U,43174,999,3082,0,-.151E-5,0
SES-14,2018-012B,2026-06-14T19:43:30.622080,1.00270794,.0000776,0.0174,19.0792,61.9583,70.4563,0,U,43175,999,700,0,-.273E-5,0
GOES 17,2018-022A,2026-06-14T19:31:31.769760,1.00270028,.0000388,0.9312,85.7532,33.8569,346.8805,0,U,43226,999,3040,0,-.177E-5,0
HISPASAT 30W-6,2018-023A,2026-06-14T19:48:30.144096,1.00270193,.0005656,0.0450,40.4233,29.3402,100.4808,0,U,43228,999,3038,0,-.211E-5,0
SUPERBIRD-B3,2018-033A,2026-06-14T17:17:57.424992,1.00271221,.0000892,0.0122,2.4371,70.6068,251.4654,0,U,43271,999,3003,0,-.86E-6,0
HYLAS 4,2018-033B,2026-06-14T18:04:52.927104,1.00271852,.000066,0.0162,21.5386,64.1722,55.0638,0,U,43272,999,3004,0,-.227E-5,0
IRNSS-1I,2018-035A,2026-06-14T20:12:28.276416,1.00271722,.0017858,28.7494,74.2326,181.5121,5.3509,0,U,43286,999,3005,0,.64E-6,0
USA 283,2018-036A,2026-06-12T17:15:31.472064,1.00273175,.0000436,0.0199,335.2360,187.5113,131.2828,0,U,43339,999,2524,0,0,0
COSMOS 2526,2018-037A,2026-06-14T20:33:30.697056,1.00271235,.0000649,0.0303,76.1374,130.0628,133.3857,0,U,43432,999,2993,0,-.339E-5,0
APSTAR-6C,2018-041A,2026-06-14T21:26:20.088384,1.00269826,.0001013,0.0241,0.8126,339.4648,18.5027,0,U,43450,999,2978,0,-.312E-5,0
BANGABANDHUSAT-1,2018-044A,2026-06-14T20:31:00.934752,1.00270948,.0001605,0.0149,53.4824,26.3169,250.2057,0,U,43463,999,2968,0,-.357E-5,0
SES-12,2018-049A,2026-06-14T19:15:44.063712,1.00268599,.0000851,0.0171,18.8193,259.9364,8.2819,0,U,43488,999,2939,0,-.263E-5,0
FENGYUN 2H,2018-050A,2026-06-14T21:47:59.234208,1.00269814,.0001955,3.0242,79.0990,137.2903,93.2285,0,U,43491,999,2941,0,-.127E-5,0
BEIDOU-2 IGSO-7,2018-057A,2026-06-14T10:12:17.793216,1.00251916,.01049768,55.1941,163.0822,237.9873,124.9006,0,U,43539,999,2910,0,-.2E-7,0
TELSTAR 19V,2018-059A,2026-06-14T19:39:08.539776,1.00269844,.000241,0.0192,165.0480,310.3928,19.4544,0,U,43562,999,2912,0,-.274E-5,0
TELKOM 4 (MERAH PUTIH),2018-064A,2026-06-14T21:31:56.559360,1.00270335,.0001222,0.0173,61.9000,52.3045,219.9686,0,U,43587,999,2885,0,-.338E-5,0
TELSTAR 18V,2018-069A,2026-06-14T18:53:42.897120,1.00270067,.0001613,0.0122,311.2047,128.7151,244.5797,0,U,43611,999,2861,0,-.288E-5,0
AZERSPACE 2 (IS-38),2018-074A,2026-06-14T20:09:51.028416,1.00269572,.0001184,0.0007,4.1567,76.6275,169.9254,0,U,43632,999,2842,0,.142E-5,0
HORIZONS-3E,2018-074B,2026-06-14T15:37:13.094400,1.00270601,.0000967,0.0187,163.9480,106.2603,36.0409,0,U,43633,999,2831,0,-.24E-6,0
AEHF-4 (USA 288),2018-079A,2026-06-14T19:37:53.661216,1.00273230,.0060414,1.4314,3.7592,356.2038,130.0920,0,U,43651,999,2827,0,-.27E-5,0
BEIDOU-3 G1,2018-085A,2026-06-14T18:59:57.297696,1.00270487,.0008069,2.8610,97.4485,348.9234,261.6672,0,U,43683,999,2803,0,-.105E-5,0
GSAT-29,2018-089A,2026-06-14T20:12:43.252128,1.00273233,.0003284,0.0611,100.7180,336.5190,184.1289,0,U,43698,999,2776,0,.9E-6,0
ES'HAIL 2,2018-090A,2026-06-14T20:04:21.554112,1.00269664,.0001586,0.0256,7.5484,117.4904,104.9712,0,U,43700,999,2765,0,0,0
GEO-KOMPSAT-2A,2018-100A,2026-06-14T20:33:38.185344,1.00271625,.000178,0.0508,126.1227,319.5000,254.2045,0,U,43823,999,2760,0,-.338E-5,0
GSAT-11,2018-100B,2026-06-14T20:18:09.667872,1.00270973,.0007632,0.0366,253.5630,193.9542,194.1639,0,U,43824,999,2745,0,-.71E-6,0
GSAT-7A,2018-105A,2026-06-14T20:21:03.840768,1.00270021,.0001901,0.0189,30.3928,32.3405,208.4344,0,U,43864,999,2742,0,0,0
COSMOS 2533,2018-107A,2026-06-14T20:17:02.275008,1.00270324,.0000683,0.0444,93.5363,18.1782,165.6654,0,U,43867,999,2742,0,-.32E-6,0
TJS-3,2018-110A,2026-06-14T17:03:02.124864,1.00270992,.0002101,2.5384,80.5210,83.7025,142.8008,0,U,43874,999,2739,0,-.212E-5,0
ZHONGXING-2D,2019-001A,2026-06-14T20:58:24.298176,1.00272543,.0001469,0.0370,248.7632,88.6272,10.3928,0,U,43920,999,5405,0,-.331E-5,0
HELLAS-SAT 4 & SGS-1,2019-007A,2026-06-14T20:08:13.683264,1.00270136,.0005336,0.0725,130.5749,13.0583,100.5940,0,U,44034,999,2734,0,.158E-5,0
GSAT-31,2019-007B,2026-06-14T20:10:43.442976,1.00273195,.0001761,0.0712,260.0435,101.8540,251.7427,0,U,44035,999,2694,0,.131E-5,0
NUSANTARA SATU,2019-009A,2026-06-14T20:38:37.704768,1.00270686,.0004186,0.0496,150.6866,325.5143,242.6212,0,U,44048,999,2674,0,-.229E-5,0
ZHONGXING-6C,2019-012A,2026-06-14T20:58:24.295584,1.00272328,.0013613,0.1127,79.0057,331.2999,297.8791,0,U,44067,999,2671,0,-.33E-5,0
WGS 10 (USA 291),2019-014A,2026-06-14T21:36:17.769888,1.00270357,.0000453,0.0187,29.4211,280.1144,338.0441,0,U,44071,999,2659,0,.52E-6,0
TIANLIAN 2-01,2019-017A,2026-06-14T20:19:02.085024,1.00270528,.0000638,0.5340,83.1192,28.9385,172.8547,0,U,44076,999,2662,0,-.101E-5,0
ARABSAT-6A,2019-021A,2026-06-14T20:05:43.921824,1.00271215,.0001493,0.0550,16.5667,351.1643,227.3416,0,U,44186,999,2613,0,.159E-5,0
BEIDOU-3 IGSO-1,2019-023A,2026-06-06T22:54:10.040832,1.00294886,.00254341,58.6799,37.7569,225.6649,92.8731,0,U,44204,999,710,0,-.215E-5,0
BEIDOU-2 G8,2019-027A,2026-06-14T20:38:15.241632,1.00271511,.0010243,1.6510,74.4976,281.9300,0.8346,0,U,44231,999,2605,0,-.243E-5,0
YAMAL 601,2019-031A,2026-06-14T21:35:38.858784,1.00270152,.0002323,0.0154,31.0667,55.2135,189.8301,0,U,44307,999,2590,0,.125E-5,0
AT&T T-16,2019-034A,2026-06-14T16:02:55.629024,1.00269507,.0000944,0.0162,50.3365,247.6371,104.8725,0,U,44333,999,2560,0,-.109E-5,0
EUTELSAT 7C,2019-034B,2026-06-14T19:59:07.057248,1.00270045,.0002964,0.0736,176.1624,251.3570,142.3954,0,U,44334,999,681,0,.54E-6,0
BEIDOU-3 IGSO-2,2019-035A,2026-06-14T14:58:00.763680,1.00267330,.0039904,55.2456,158.8849,216.4592,231.8306,0,U,44337,999,2564,0,-.71E-6,0
COSMOS 2539,2019-048A,2026-06-14T21:33:01.177056,1.00270575,.000039,0.0373,90.1211,344.2277,164.0887,0,U,44457,999,2520,0,.86E-6,0
EDRS-C,2019-049A,2026-06-14T20:37:45.290208,1.00270010,.0000058,0.0175,42.7796,85.2456,227.0774,0,U,44475,999,2518,0,-.257E-5,0
INTELSAT 39 (IS-39),2019-049B,2026-06-14T21:38:13.781760,1.00270298,.000095,0.0254,353.5602,320.1053,336.0356,0,U,44476,999,2510,0,0,0
AMOS-17,2019-050A,2026-06-14T19:39:38.466144,1.00271984,.0001567,0.0182,327.4226,151.1380,96.4478,0,U,44479,999,2516,0,.115E-5,0
AEHF-5 (USA 292),2019-051A,2026-06-14T19:24:24.056928,1.00274417,.0066377,1.4566,336.0125,0.1523,311.0747,0,U,44481,999,2523,0,-.252E-5,0
EUTELSAT 5 WEST B,2019-067A,2026-06-14T18:12:59.649408,1.00272026,.0002878,0.0631,1.4706,80.6240,89.2298,0,U,44624,999,2441,0,-.36E-6,0
TJS-4,2019-070A,2026-06-14T21:52:50.151648,1.00268522,.0004412,0.0196,30.4712,10.0909,274.3257,0,U,44637,999,2451,0,-.163E-5,0
BEIDOU-3 IGSO-3,2019-073A,2026-05-16T19:27:04.075776,1.00246251,.0042953,54.8566,281.2355,189.4588,170.3676,0,U,44709,999,2414,0,-.217E-5,0
TIBA-1,2019-080A,2026-06-14T20:07:06.291264,1.00269474,.000178,0.0519,5.2723,90.1294,144.9932,0,U,44800,999,2403,0,.161E-5,0
INMARSAT GX5,2019-080B,2026-06-14T21:33:01.216800,1.00272064,.000216,0.0473,31.5545,49.6642,156.2618,0,U,44801,999,676,0,.8E-6,0
JCSAT-18 (KACIFIC 1),2019-091A,2026-06-14T18:19:38.610048,1.00268954,.0000433,0.0165,289.1281,321.8787,76.9538,0,U,44868,999,2398,0,-.195E-5,0
ELEKTRO-L 3,2019-095A,2026-06-14T20:18:39.621024,1.00271493,.0000964,0.2500,81.5549,352.7818,209.4234,0,U,44903,999,2368,0,-.91E-6,0
SHIJIAN-20 (SJ-20),2019-097A,2026-06-14T20:09:51.028416,1.00277376,.0013881,4.9130,75.0908,55.0132,120.3791,0,U,44910,999,2367,0,.137E-5,0
TJS-5,2020-002A,2026-06-14T21:31:56.617248,1.00269836,.0007345,0.0178,300.3464,106.1304,287.2063,0,U,44978,999,2368,0,-.336E-5,0
GSAT-30,2020-005A,2026-06-14T20:41:07.404000,1.00271291,.0003334,0.0678,97.9457,346.4850,211.9929,0,U,45026,999,2348,0,-.159E-5,0
EUTELSAT KONNECT,2020-005B,2026-06-14T13:08:17.552832,1.00268215,.0001225,0.0732,96.9205,141.0425,229.1863,0,U,45027,999,2431,0,.56E-6,0
JCSAT-17,2020-013A,2026-06-14T20:35:52.970208,1.00270910,.0002331,5.3924,356.8494,84.4989,266.7955,0,U,45245,999,2320,0,-.312E-5,0
GEO-KOMPSAT-2B,2020-013B,2026-06-14T20:33:38.185344,1.00270024,.0000775,0.0110,349.1604,281.6451,69.0224,0,U,45246,999,2325,0,0,0
BEIDOU-3 G2,2020-017A,2026-06-14T21:44:24.015264,1.00272246,.0002054,2.8585,47.3028,32.1143,229.9577,0,U,45344,999,2323,0,-.138E-5,0
AEHF-6 (USA 298),2020-022B,2026-06-14T20:36:22.920768,1.00272131,.0043197,2.5535,301.1248,17.0076,31.8901,0,U,45465,999,2299,0,-.29E-5,0
BEIDOU-3 G3,2020-040A,2026-06-14T20:28:31.175040,1.00267771,.0002428,2.4403,67.4398,335.2216,278.1515,0,U,45807,999,2204,0,-.35E-5,0
APSTAR-6D,2020-045A,2026-06-14T17:09:58.190976,1.00270603,.00021,0.0526,103.4417,344.7574,206.3375,0,U,45863,999,2183,0,-.311E-5,0
KOREASAT 116,2020-048A,2026-06-14T20:30:08.520192,1.00269049,.0000696,0.0119,10.6820,76.6224,239.5882,0,U,45920,999,2161,0,-.356E-5,0
EXPRESS 103,2020-053A,2026-06-14T21:26:21.660000,1.00269558,.0000318,0.0130,284.5079,62.3717,334.3949,0,U,45985,999,2162,0,-.275E-5,0
EXPRESS 80,2020-053B,2026-06-14T01:10:38.496288,1.00274018,.0001484,0.0221,298.2331,231.0181,190.7564,0,U,45986,999,2160,0,-.127E-5,0
BSAT-4B,2020-056A,2026-06-13T11:57:51.918912,1.00268721,.00037461,0.0192,98.5475,17.2668,75.2961,0,U,46112,999,2135,0,0,0
MEV-2,2020-056B,2026-06-14T16:31:30.389088,1.00272541,.000057,0.0115,318.2352,256.9130,294.7051,0,U,46113,999,8053,0,-.4E-7,0
GALAXY 30 (G-30),2020-056C,2026-06-14T17:38:47.926752,1.00270554,.0002054,0.0177,7.5322,77.1559,318.0394,0,U,46114,999,2126,0,.43E-6,0
GAOFEN-13 01,2020-071A,2026-06-14T20:30:53.448192,1.00271689,.0041393,0.5154,84.8717,123.7043,120.5137,0,U,46610,999,2089,0,-.357E-5,0
TIANTONG-1 2,2020-082A,2026-06-14T20:32:38.280768,1.00270443,.0000945,0.7937,327.1818,99.5502,269.5192,0,U,46916,999,2062,0,-.35E-5,0
